{
  "type": "FeatureCollection",
  "features": [
    {
      "type": "Feature",
      "properties": {
        "norad_id": 66463,
        "name": "STARLINK-35463",
        "group": "last-30-days",
        "lat": -36.516097316691884,
        "lon": -34.31467565961812,
        "alt_km": 424.11235393237166,
        "timestamp": "2025-12-08T23:34:02.738893+00:00",
        "meta_object_name": "STARLINK-35463",
        "meta_object_id": "2025-262H",
        "meta_epoch": "2025-12-08T14:00:01.999872",
        "meta_mean_motion": 15.50052716,
        "meta_eccentricity": 0.00012032,
        "meta_inclination": 43.0003,
        "meta_ra_of_asc_node": 95.4009,
        "meta_arg_of_pericenter": 283.38,
        "meta_mean_anomaly": 251.6513,
        "meta_ephemeris_type": 0,
        "meta_classification_type": "U",
        "meta_norad_cat_id": 66463,
        "meta_element_set_no": 999,
        "meta_rev_at_epoch": 497,
        "meta_bstar": -0.040629089,
        "meta_mean_motion_dot": -0.02079408,
        "meta_mean_motion_ddot": 0,
        "tle_line1": "1 66463U 25262H   25342.58335648 -.02079408  00000+0 -40629-1 0  9993",
        "tle_line2": "2 66463  43.0003  95.4009 0001203 283.3800 251.6513 15.50052716  4979"
      },
      "geometry": {
        "type": "Point",
        "coordinates": [
          -34.31467565961812,
          -36.516097316691884
        ]
      }
    },
    {
      "type": "Feature",
      "properties": {
        "norad_id": 66464,
        "name": "STARLINK-35435",
        "group": "last-30-days",
        "lat": -34.264547962642304,
        "lon": -39.937416718335975,
        "alt_km": 428.22186147933826,
        "timestamp": "2025-12-08T23:34:02.738905+00:00",
        "meta_object_name": "STARLINK-35435",
        "meta_object_id": "2025-262J",
        "meta_epoch": "2025-12-08T14:00:01.999872",
        "meta_mean_motion": 15.48721047,
        "meta_eccentricity": 8.507e-05,
        "meta_inclination": 43.0001,
        "meta_ra_of_asc_node": 95.409,
        "meta_arg_of_pericenter": 277.4901,
        "meta_mean_anomaly": 254.3512,
        "meta_ephemeris_type": 0,
        "meta_classification_type": "U",
        "meta_norad_cat_id": 66464,
        "meta_element_set_no": 999,
        "meta_rev_at_epoch": 497,
        "meta_bstar": -0.043142891,
        "meta_mean_motion_dot": -0.02102535,
        "meta_mean_motion_ddot": 0,
        "tle_line1": "1 66464U 25262J   25342.58335648 -.02102535  00000+0 -43143-1 0  9996",
        "tle_line2": "2 66464  43.0001  95.4090 0000850 277.4901 254.3512 15.48721047  4977"
      },
      "geometry": {
        "type": "Point",
        "coordinates": [
          -39.937416718335975,
          -34.264547962642304
        ]
      }
    },
    {
      "type": "Feature",
      "properties": {
        "norad_id": 66465,
        "name": "STARLINK-35448",
        "group": "last-30-days",
        "lat": -38.80504008898755,
        "lon": -27.287549003989255,
        "alt_km": 417.4432784898254,
        "timestamp": "2025-12-08T23:34:02.738916+00:00",
        "meta_object_name": "STARLINK-35448",
        "meta_object_id": "2025-262K",
        "meta_epoch": "2025-12-08T14:00:01.999872",
        "meta_mean_motion": 15.50599539,
        "meta_eccentricity": 0.00013111,
        "meta_inclination": 43,
        "meta_ra_of_asc_node": 95.3919,
        "meta_arg_of_pericenter": 266.1239,
        "meta_mean_anomaly": 272.8615,
        "meta_ephemeris_type": 0,
        "meta_classification_type": "U",
        "meta_norad_cat_id": 66465,
        "meta_element_set_no": 999,
        "meta_rev_at_epoch": 497,
        "meta_bstar": -0.00081597675,
        "meta_mean_motion_dot": -0.00047953,
        "meta_mean_motion_ddot": 0,
        "tle_line1": "1 66465U 25262K   25342.58335648 -.00047953  00000+0 -81598-3 0  9995",
        "tle_line2": "2 66465  43.0000  95.3919 0001311 266.1239 272.8615 15.50599539  4979"
      },
      "geometry": {
        "type": "Point",
        "coordinates": [
          -27.287549003989255,
          -38.80504008898755
        ]
      }
    },
    {
      "type": "Feature",
      "properties": {
        "norad_id": 66466,
        "name": "STARLINK-35388",
        "group": "last-30-days",
        "lat": -39.43751031414656,
        "lon": -24.982139410831685,
        "alt_km": 417.43831487230545,
        "timestamp": "2025-12-08T23:34:02.738927+00:00",
        "meta_object_name": "STARLINK-35388",
        "meta_object_id": "2025-262L",
        "meta_epoch": "2025-12-08T14:00:01.999872",
        "meta_mean_motion": 15.50611507,
        "meta_eccentricity": 0.00014847,
        "meta_inclination": 43.0002,
        "meta_ra_of_asc_node": 95.3857,
        "meta_arg_of_pericenter": 268.7367,
        "meta_mean_anomaly": 272.1642,
        "meta_ephemeris_type": 0,
        "meta_classification_type": "U",
        "meta_norad_cat_id": 66466,
        "meta_element_set_no": 999,
        "meta_rev_at_epoch": 497,
        "meta_bstar": -0.0016309292,
        "meta_mean_motion_dot": -0.00094979,
        "meta_mean_motion_ddot": 0,
        "tle_line1": "1 66466U 25262L   25342.58335648 -.00094979  00000+0 -16309-2 0  9993",
        "tle_line2": "2 66466  43.0002  95.3857 0001484 268.7367 272.1642 15.50611507  4977"
      },
      "geometry": {
        "type": "Point",
        "coordinates": [
          -24.982139410831685,
          -39.43751031414656
        ]
      }
    },
    {
      "type": "Feature",
      "properties": {
        "norad_id": 66467,
        "name": "STARLINK-35682",
        "group": "last-30-days",
        "lat": -37.965165358020414,
        "lon": -30.071877806631424,
        "alt_km": 420.1234716498866,
        "timestamp": "2025-12-08T23:34:02.738937+00:00",
        "meta_object_name": "STARLINK-35682",
        "meta_object_id": "2025-262M",
        "meta_epoch": "2025-12-08T14:00:01.999872",
        "meta_mean_motion": 15.51007708,
        "meta_eccentricity": 0.00010823,
        "meta_inclination": 43.0003,
        "meta_ra_of_asc_node": 95.3963,
        "meta_arg_of_pericenter": 280.4574,
        "meta_mean_anomaly": 256.5542,
        "meta_ephemeris_type": 0,
        "meta_classification_type": "U",
        "meta_norad_cat_id": 66467,
        "meta_element_set_no": 999,
        "meta_rev_at_epoch": 497,
        "meta_bstar": -0.029271518,
        "meta_mean_motion_dot": -0.01571634,
        "meta_mean_motion_ddot": 0,
        "tle_line1": "1 66467U 25262M   25342.58335648 -.01571634  00000+0 -29272-1 0  9995",
        "tle_line2": "2 66467  43.0003  95.3963 0001082 280.4574 256.5542 15.51007708  4970"
      },
      "geometry": {
        "type": "Point",
        "coordinates": [
          -30.071877806631424,
          -37.965165358020414
        ]
      }
    },
    {
      "type": "Feature",
      "properties": {
        "norad_id": 66468,
        "name": "STARLINK-35331",
        "group": "last-30-days",
        "lat": -40.027505000514715,
        "lon": -22.616301695655636,
        "alt_km": 417.4426523953907,
        "timestamp": "2025-12-08T23:34:02.738949+00:00",
        "meta_object_name": "STARLINK-35331",
        "meta_object_id": "2025-262N",
        "meta_epoch": "2025-12-08T14:00:01.999872",
        "meta_mean_motion": 15.5060722,
        "meta_eccentricity": 0.00015344,
        "meta_inclination": 43.0004,
        "meta_ra_of_asc_node": 95.3819,
        "meta_arg_of_pericenter": 273.0995,
        "meta_mean_anomaly": 269.7211,
        "meta_ephemeris_type": 0,
        "meta_classification_type": "U",
        "meta_norad_cat_id": 66468,
        "meta_element_set_no": 999,
        "meta_rev_at_epoch": 497,
        "meta_bstar": -0.0014627709,
        "meta_mean_motion_dot": -0.00085313,
        "meta_mean_motion_ddot": 0,
        "tle_line1": "1 66468U 25262N   25342.58335648 -.00085313  00000+0 -14628-2 0  9999",
        "tle_line2": "2 66468  43.0004  95.3819 0001534 273.0995 269.7211 15.50607220  4972"
      },
      "geometry": {
        "type": "Point",
        "coordinates": [
          -22.616301695655636,
          -40.027505000514715
        ]
      }
    },
    {
      "type": "Feature",
      "properties": {
        "norad_id": 66469,
        "name": "STARLINK-35451",
        "group": "last-30-days",
        "lat": -41.49594323613016,
        "lon": -15.290716954149875,
        "alt_km": 417.75421525824913,
        "timestamp": "2025-12-08T23:34:02.738960+00:00",
        "meta_object_name": "STARLINK-35451",
        "meta_object_id": "2025-262P",
        "meta_epoch": "2025-12-08T14:00:01.999872",
        "meta_mean_motion": 15.50676947,
        "meta_eccentricity": 0.00012353,
        "meta_inclination": 43.0003,
        "meta_ra_of_asc_node": 95.3671,
        "meta_arg_of_pericenter": 283.4286,
        "meta_mean_anomaly": 265.1099,
        "meta_ephemeris_type": 0,
        "meta_classification_type": "U",
        "meta_norad_cat_id": 66469,
        "meta_element_set_no": 999,
        "meta_rev_at_epoch": 497,
        "meta_bstar": -0.0032804237,
        "meta_mean_motion_dot": -0.00188874,
        "meta_mean_motion_ddot": 0,
        "tle_line1": "1 66469U 25262P   25342.58335648 -.00188874  00000+0 -32804-2 0  9992",
        "tle_line2": "2 66469  43.0003  95.3671 0001235 283.4286 265.1099 15.50676947  4970"
      },
      "geometry": {
        "type": "Point",
        "coordinates": [
          -15.290716954149875,
          -41.49594323613016
        ]
      }
    }
  ]
}